[{"OBJECT_NAME":"TAURUS-1 (JINNIUZUO 1)","OBJECT_ID":"2019-059C","EPOCH":"2026-03-09T23:11:28.459968","MEAN_MOTION":14.70821687,"ECCENTRICITY":0.00084298,"INCLINATION":98.6309,"RA_OF_ASC_NODE":227.7793,"ARG_OF_PERICENTER":257.208,"MEAN_ANOMALY":102.8183,"EPHEMERIS_TYPE":0,"CLASSIFICATION_TYPE":"U","NORAD_CAT_ID":44530,"ELEMENT_SET_NO":999,"REV_AT_EPOCH":34405,"BSTAR":0.0015963092,"MEAN_MOTION_DOT":9.715e-5,"MEAN_MOTION_DDOT":0},{"OBJECT_NAME":"COSMOS 249 DEB","OBJECT_ID":"1968-091DJ","EPOCH":"2026-03-09T22:59:41.072064","MEAN_MOTION":14.2447733,"ECCENTRICITY":0.04678273,"INCLINATION":62.7651,"RA_OF_ASC_NODE":269.2895,"ARG_OF_PERICENTER":43.0913,"MEAN_ANOMALY":320.579,"EPHEMERIS_TYPE":0,"CLASSIFICATION_TYPE":"U","NORAD_CAT_ID":19362,"ELEMENT_SET_NO":999,"REV_AT_EPOCH":90582,"BSTAR":0.0013749035,"MEAN_MOTION_DOT":0.00010099,"MEAN_MOTION_DDOT":0}]
